{
  "norad_id": 63329,
  "name": "STARLINK-33674",
  "history": [
    {
      "epoch": "2026-03-28T19:52:29.716608",
      "apogee_km": 484.3016900041557,
      "perigee_km": 481.663452306655,
      "latitude_deg": -28.172764975529187,
      "longitude_deg": -127.60031488002278,
      "semi_major_axis_km": 6861.1195711554055,
      "eccentricity": 0.00019226,
      "inclination_deg": 42.9965,
      "raan_deg": 282.8301,
      "arg_perigee_deg": 285.9251,
      "mean_anomaly_deg": 74.1389,
      "mean_motion_rev_day": 15.27602217
    }
  ]
}